STARLINK-35568          
1 66473U 25262T   25345.31884340  .00230458  00000+0  38259-2 0  9993
2 66473  42.9998  79.3576 0004759 252.6139 107.4201 15.50526439  5346
STARLINK-35620          
1 66474U 25262U   25345.31845303  .00219297  00000+0  36220-2 0  9994
2 66474  43.0007  79.3535 0001937 275.2448  84.8191 15.50718811  5347
STARLINK-35538          
1 66475U 25262V   25345.31809827  .00219166  00000+0  36228-2 0  9999
2 66475  43.0003  79.3517 0003126 290.4190  69.6334 15.50695378  5341
STARLINK-35372          
1 66476U 25262W   25345.31775540  .00213448  00000+0  35312-2 0  9994
2 66476  43.0003  79.3488 0001146 272.1293  87.9436 15.50695203  5231
STARLINK-35354          
1 66477U 25262X   25345.31706821  .00161640  00000+0  26960-2 0  9996
2 66477  43.0001  79.3431 0001609 267.1783  92.8893 15.50668561  5341
STARLINK-35283          
1 66478U 25262Y   25345.31672232  .00195292  00000+0  32392-2 0  9991
2 66478  43.0000  79.3398 0001747 260.3131  99.7532 15.50692325  5349
STARLINK-35581          
1 66479U 25262Z   25345.31741266  .00238924  00000+0  39384-2 0  9994
2 66479  43.0001  79.3447 0002063 270.6416  89.4208 15.50700060  5340
STARLINK-35670          
1 66480U 25262AA  25345.31638261  .00176180  00000+0  29318-2 0  9997
2 66480  43.0004  79.3368 0001663 272.8981  87.1689 15.50674753  5340
STARLINK-35698          
1 66481U 25262AB  25345.31603927  .00191646  00000+0  31816-2 0  9999
2 66481  43.0002  79.3339 0002304 280.8097  79.2504 15.50681189  5346
STARLINK-35648          
1 66482U 25262AC  25345.31569694  .00138878  00000+0  23252-2 0  9995
2 66482  43.0002  79.3314 0001725 266.5381  93.5281 15.50653247  5180
STARLINK-35654          
1 66483U 25262AD  25345.31535446  .00207980  00000+0  34442-2 0  9998
2 66483  43.0004  79.3265 0002151 277.1436  82.9180 15.50687871  5349
STARLINK-35371          
1 66484U 25262AE  25345.31501100  .00222049  00000+0  36688-2 0  9996
2 66484  43.0002  79.3252 0001950 272.5859  87.4777 15.50698591  5341
