CCSDS_OMM_VERS = 2.0
CREATION_DATE  = 
ORIGINATOR     = 

OBJECT_NAME    = STARLINK-35568
OBJECT_ID      = 2025-262T
CENTER_NAME    = EARTH
REF_FRAME      = TEME
TIME_SYSTEM    = UTC
MEAN_ELEMENT_THEORY = SGP/SGP4

EPOCH          = 2025-12-11T07:39:08.069760
MEAN_MOTION    = 15.50526439
ECCENTRICITY   = .00047596
INCLINATION    = 42.9998
RA_OF_ASC_NODE = 79.3576
ARG_OF_PERICENTER = 252.6139
MEAN_ANOMALY   = 107.4201

EPHEMERIS_TYPE = 0
CLASSIFICATION_TYPE = U
NORAD_CAT_ID   = 66473
ELEMENT_SET_NO = 999
REV_AT_EPOCH   = 534
BSTAR          = .38259112E-2
MEAN_MOTION_DOT = .230458E-2
MEAN_MOTION_DDOT = 0

CCSDS_OMM_VERS = 2.0
CREATION_DATE  = 
ORIGINATOR     = 

OBJECT_NAME    = STARLINK-35620
OBJECT_ID      = 2025-262U
CENTER_NAME    = EARTH
REF_FRAME      = TEME
TIME_SYSTEM    = UTC
MEAN_ELEMENT_THEORY = SGP/SGP4

EPOCH          = 2025-12-11T07:38:34.341792
MEAN_MOTION    = 15.50718811
ECCENTRICITY   = .00019374
INCLINATION    = 43.0007
RA_OF_ASC_NODE = 79.3535
ARG_OF_PERICENTER = 275.2448
MEAN_ANOMALY   = 84.8191

EPHEMERIS_TYPE = 0
CLASSIFICATION_TYPE = U
NORAD_CAT_ID   = 66474
ELEMENT_SET_NO = 999
REV_AT_EPOCH   = 534
BSTAR          = .36220445E-2
MEAN_MOTION_DOT = .219297E-2
MEAN_MOTION_DDOT = 0

CCSDS_OMM_VERS = 2.0
CREATION_DATE  = 
ORIGINATOR     = 

OBJECT_NAME    = STARLINK-35538
OBJECT_ID      = 2025-262V
CENTER_NAME    = EARTH
REF_FRAME      = TEME
TIME_SYSTEM    = UTC
MEAN_ELEMENT_THEORY = SGP/SGP4

EPOCH          = 2025-12-11T07:38:03.690528
MEAN_MOTION    = 15.50695378
ECCENTRICITY   = .00031261
INCLINATION    = 43.0003
RA_OF_ASC_NODE = 79.3517
ARG_OF_PERICENTER = 290.4190
MEAN_ANOMALY   = 69.6334

EPHEMERIS_TYPE = 0
CLASSIFICATION_TYPE = U
NORAD_CAT_ID   = 66475
ELEMENT_SET_NO = 999
REV_AT_EPOCH   = 534
BSTAR          = .36227816E-2
MEAN_MOTION_DOT = .219166E-2
MEAN_MOTION_DDOT = 0

CCSDS_OMM_VERS = 2.0
CREATION_DATE  = 
ORIGINATOR     = 

OBJECT_NAME    = STARLINK-35372
OBJECT_ID      = 2025-262W
CENTER_NAME    = EARTH
REF_FRAME      = TEME
TIME_SYSTEM    = UTC
MEAN_ELEMENT_THEORY = SGP/SGP4

EPOCH          = 2025-12-11T07:37:34.066560
MEAN_MOTION    = 15.50695203
ECCENTRICITY   = .00011469
INCLINATION    = 43.0003
RA_OF_ASC_NODE = 79.3488
ARG_OF_PERICENTER = 272.1293
MEAN_ANOMALY   = 87.9436

EPHEMERIS_TYPE = 0
CLASSIFICATION_TYPE = U
NORAD_CAT_ID   = 66476
ELEMENT_SET_NO = 999
REV_AT_EPOCH   = 523
BSTAR          = .35312037E-2
MEAN_MOTION_DOT = .213448E-2
MEAN_MOTION_DDOT = 0

CCSDS_OMM_VERS = 2.0
CREATION_DATE  = 
ORIGINATOR     = 

OBJECT_NAME    = STARLINK-35354
OBJECT_ID      = 2025-262X
CENTER_NAME    = EARTH
REF_FRAME      = TEME
TIME_SYSTEM    = UTC
MEAN_ELEMENT_THEORY = SGP/SGP4

EPOCH          = 2025-12-11T07:36:34.693344
MEAN_MOTION    = 15.50668561
ECCENTRICITY   = .00016097
INCLINATION    = 43.0001
RA_OF_ASC_NODE = 79.3431
ARG_OF_PERICENTER = 267.1783
MEAN_ANOMALY   = 92.8893

EPHEMERIS_TYPE = 0
CLASSIFICATION_TYPE = U
NORAD_CAT_ID   = 66477
ELEMENT_SET_NO = 999
REV_AT_EPOCH   = 534
BSTAR          = .26959533E-2
MEAN_MOTION_DOT = .16164E-2
MEAN_MOTION_DDOT = 0

CCSDS_OMM_VERS = 2.0
CREATION_DATE  = 
ORIGINATOR     = 

OBJECT_NAME    = STARLINK-35283
OBJECT_ID      = 2025-262Y
CENTER_NAME    = EARTH
REF_FRAME      = TEME
TIME_SYSTEM    = UTC
MEAN_ELEMENT_THEORY = SGP/SGP4

EPOCH          = 2025-12-11T07:36:04.808448
MEAN_MOTION    = 15.50692325
ECCENTRICITY   = .00017473
INCLINATION    = 43.0000
RA_OF_ASC_NODE = 79.3398
ARG_OF_PERICENTER = 260.3131
MEAN_ANOMALY   = 99.7532

EPHEMERIS_TYPE = 0
CLASSIFICATION_TYPE = U
NORAD_CAT_ID   = 66478
ELEMENT_SET_NO = 999
REV_AT_EPOCH   = 534
BSTAR          = .32392192E-2
MEAN_MOTION_DOT = .195292E-2
MEAN_MOTION_DDOT = 0

CCSDS_OMM_VERS = 2.0
CREATION_DATE  = 
ORIGINATOR     = 

OBJECT_NAME    = STARLINK-35581
OBJECT_ID      = 2025-262Z
CENTER_NAME    = EARTH
REF_FRAME      = TEME
TIME_SYSTEM    = UTC
MEAN_ELEMENT_THEORY = SGP/SGP4

EPOCH          = 2025-12-11T07:37:04.453824
MEAN_MOTION    = 15.50700060
ECCENTRICITY   = .00020639
INCLINATION    = 43.0001
RA_OF_ASC_NODE = 79.3447
ARG_OF_PERICENTER = 270.6416
MEAN_ANOMALY   = 89.4208

EPHEMERIS_TYPE = 0
CLASSIFICATION_TYPE = U
NORAD_CAT_ID   = 66479
ELEMENT_SET_NO = 999
REV_AT_EPOCH   = 534
BSTAR          = .39383575E-2
MEAN_MOTION_DOT = .238924E-2
MEAN_MOTION_DDOT = 0

CCSDS_OMM_VERS = 2.0
CREATION_DATE  = 
ORIGINATOR     = 

OBJECT_NAME    = STARLINK-35670
OBJECT_ID      = 2025-262AA
CENTER_NAME    = EARTH
REF_FRAME      = TEME
TIME_SYSTEM    = UTC
MEAN_ELEMENT_THEORY = SGP/SGP4

EPOCH          = 2025-12-11T07:35:35.457504
MEAN_MOTION    = 15.50674753
ECCENTRICITY   = .00016635
INCLINATION    = 43.0004
RA_OF_ASC_NODE = 79.3368
ARG_OF_PERICENTER = 272.8981
MEAN_ANOMALY   = 87.1689

EPHEMERIS_TYPE = 0
CLASSIFICATION_TYPE = U
NORAD_CAT_ID   = 66480
ELEMENT_SET_NO = 999
REV_AT_EPOCH   = 534
BSTAR          = .2931801E-2
MEAN_MOTION_DOT = .17618E-2
MEAN_MOTION_DDOT = 0

CCSDS_OMM_VERS = 2.0
CREATION_DATE  = 
ORIGINATOR     = 

OBJECT_NAME    = STARLINK-35698
OBJECT_ID      = 2025-262AB
CENTER_NAME    = EARTH
REF_FRAME      = TEME
TIME_SYSTEM    = UTC
MEAN_ELEMENT_THEORY = SGP/SGP4

EPOCH          = 2025-12-11T07:35:05.792928
MEAN_MOTION    = 15.50681189
ECCENTRICITY   = .00023047
INCLINATION    = 43.0002
RA_OF_ASC_NODE = 79.3339
ARG_OF_PERICENTER = 280.8097
MEAN_ANOMALY   = 79.2504

EPHEMERIS_TYPE = 0
CLASSIFICATION_TYPE = U
NORAD_CAT_ID   = 66481
ELEMENT_SET_NO = 999
REV_AT_EPOCH   = 534
BSTAR          = .3181564E-2
MEAN_MOTION_DOT = .191646E-2
MEAN_MOTION_DDOT = 0

CCSDS_OMM_VERS = 2.0
CREATION_DATE  = 
ORIGINATOR     = 

OBJECT_NAME    = STARLINK-35648
OBJECT_ID      = 2025-262AC
CENTER_NAME    = EARTH
REF_FRAME      = TEME
TIME_SYSTEM    = UTC
MEAN_ELEMENT_THEORY = SGP/SGP4

EPOCH          = 2025-12-11T07:34:36.215616
MEAN_MOTION    = 15.50653247
ECCENTRICITY   = .00017258
INCLINATION    = 43.0002
RA_OF_ASC_NODE = 79.3314
ARG_OF_PERICENTER = 266.5381
MEAN_ANOMALY   = 93.5281

EPHEMERIS_TYPE = 0
CLASSIFICATION_TYPE = U
NORAD_CAT_ID   = 66482
ELEMENT_SET_NO = 999
REV_AT_EPOCH   = 518
BSTAR          = .23251527E-2
MEAN_MOTION_DOT = .138878E-2
MEAN_MOTION_DDOT = 0

CCSDS_OMM_VERS = 2.0
CREATION_DATE  = 
ORIGINATOR     = 

OBJECT_NAME    = STARLINK-35654
OBJECT_ID      = 2025-262AD
CENTER_NAME    = EARTH
REF_FRAME      = TEME
TIME_SYSTEM    = UTC
MEAN_ELEMENT_THEORY = SGP/SGP4

EPOCH          = 2025-12-11T07:34:06.625344
MEAN_MOTION    = 15.50687871
ECCENTRICITY   = .00021518
INCLINATION    = 43.0004
RA_OF_ASC_NODE = 79.3265
ARG_OF_PERICENTER = 277.1436
MEAN_ANOMALY   = 82.9180

EPHEMERIS_TYPE = 0
CLASSIFICATION_TYPE = U
NORAD_CAT_ID   = 66483
ELEMENT_SET_NO = 999
REV_AT_EPOCH   = 534
BSTAR          = .34441975E-2
MEAN_MOTION_DOT = .20798E-2
MEAN_MOTION_DDOT = 0

CCSDS_OMM_VERS = 2.0
CREATION_DATE  = 
ORIGINATOR     = 

OBJECT_NAME    = STARLINK-35371
OBJECT_ID      = 2025-262AE
CENTER_NAME    = EARTH
REF_FRAME      = TEME
TIME_SYSTEM    = UTC
MEAN_ELEMENT_THEORY = SGP/SGP4

EPOCH          = 2025-12-11T07:33:36.950400
MEAN_MOTION    = 15.50698591
ECCENTRICITY   = .00019509
INCLINATION    = 43.0002
RA_OF_ASC_NODE = 79.3252
ARG_OF_PERICENTER = 272.5859
MEAN_ANOMALY   = 87.4777

EPHEMERIS_TYPE = 0
CLASSIFICATION_TYPE = U
NORAD_CAT_ID   = 66484
ELEMENT_SET_NO = 999
REV_AT_EPOCH   = 534
BSTAR          = .36687521E-2
MEAN_MOTION_DOT = .222049E-2
MEAN_MOTION_DDOT = 0

